IRIDIUM 26              
1 24903U 97043A   25204.80935266  .00000358  00000+0  11391-3 0  9996
2 24903  86.3941  95.2381 0002067  80.2895 279.8536 14.37167407462008
IRIDIUM 22              
1 24907U 97043E   25204.76947264  .00000318  00000+0  10292-3 0  9991
2 24907  86.3949  98.8272 0002077  86.1094 274.0340 14.35976994462024
DUMMY MASS 1            
1 24925U 97048A   25204.82335026  .00000411  00000+0  42759-4 0  9998
2 24925  86.3360 118.3956 0007734  34.2373 325.9349 14.87010186510575
DUMMY MASS 2            
1 24926U 97048B   25204.85890981  .00000404  00000+0  42159-4 0  9994
2 24926  86.3363 119.9933 0008867  42.2821 317.9086 14.86762156510351
IRIDIUM 29              
1 24944U 97051A   25204.91869552  .00000379  00000+0  12262-3 0  9997
2 24944  86.3984 128.4982 0002294  90.2983 269.8477 14.36491411458548
IRIDIUM 33              
1 24946U 97051C   25204.87111066  .00000287  00000+0  94014-4 0  9998
2 24946  86.3899 127.7815 0006772 334.1280  25.9577 14.34910987458002
IRIDIUM 28              
1 24948U 97051E   25204.86906920  .00000320  00000+0  10053-3 0  9998
2 24948  86.3986 126.0142 0002014  72.6212 287.5206 14.37406378459115
IRIDIUM 36              
1 24967U 97056C   25204.96589076  .00000377  00000+0  11897-3 0  9993
2 24967  86.4012 157.5598 0002009  86.7119 273.4309 14.37632567457507
